GUOWANG GROUP 20 OBJECT*
1 68135U 26047G   26085.74432800  .00000018  00000+0  11069-3 0  9999
2 68135  50.0409   0.8903 0004806 213.0056 147.0548 14.01583953  1962
GUOWANG GROUP 20 OBJECT*
1 68136U 26047H   26084.03205513 -.00000099  00000+0  33918-4 0  9998
2 68136  49.9530   7.8688 0014532 103.7924 256.4596 14.01074305  1715
GUOWANG GROUP 20 OBJECT*
1 68137U 26047J   26082.88983446 -.00000137  00000+0  91454-5 0  9991
2 68137  50.0081  12.5219 0000175 124.6965 235.3956 14.02259904  1568
CZ-8A R/B               
1 68138U 26047K   26088.14613258 -.00000114  00000+0  21356-4 0  9996
2 68138  49.9538 350.2197 0044755 205.1421 154.7307 14.12232162  2309
SHIYAN-30 03            
1 68139U 26048A   26087.84714576  .00003047  00000+0  29961-3 0  9995
2 68139  35.0012  29.2500 0003191 358.4198   1.6497 14.91724073  2366
SHIYAN-30 04            
1 68140U 26048B   26087.91478412  .00002927  00000+0  28782-3 0  9997
2 68140  34.9927  28.8506 0001686 354.9978   5.0710 14.91733095  2377
CZ-2D R/B               
1 68141U 26048C   26088.20999497  .00002070  00000+0  18548-3 0  9990
2 68141  35.1307  26.8521 0015113 137.6457 222.5421 14.95565020  2422
STARLINK-36604          
1 68142U 26049A   26088.09941465  .00095719  00000+0  49435-3 0  9992
2 68142  97.2844 108.3009 0001246 119.1977 240.9416 15.80844349  2471
STARLINK-36995          
1 68143U 26049B   26088.09866323  .00091836  00000+0  47463-3 0  9997
2 68143  97.2846 108.3017 0000773  78.0778 282.0577 15.80840636  2479
STARLINK-37020          
1 68144U 26049C   26087.90725482  .00118322  00000+0  60907-3 0  9995
2 68144  97.2844 108.1031 0000915 118.5602 241.5759 15.80853931  2447
STARLINK-36244          
1 68145U 26049D   26088.16668981  .00015288  00000+0  10330-3 0  9997
2 68145  97.2845 108.3659 0001166  86.4534 282.8806 15.75164232  3763
STARLINK-36980          
1 68146U 26049E   26088.09640928  .00224296  00000+0  11381-2 0  9998
2 68146  97.2844 108.3047 0001282 113.8176 246.3226 15.80888567  2478
STARLINK-37055          
1 68147U 26049F   26088.09791242  .00070933  00000+0  36792-3 0  9996
2 68147  97.2845 108.3021 0000921  87.4882 272.6492 15.80824510  2476
STARLINK-36981          
1 68148U 26049G   26088.03160510  .00114133  00000+0  58780-3 0  9991
2 68148  97.2845 108.2393 0001370  97.7682 262.3742 15.80854217  2469
STARLINK-36992          
1 68149U 26049H   26088.09415669  .00223696  00000+0  11356-2 0  9998
2 68149  97.2845 108.3073 0001273 101.0714 259.0697 15.80879874  2472
STARLINK-37060          
1 68150U 26049J   26088.09340330  .00202457  00000+0  10299-2 0  9999
2 68150  97.2843 108.3083 0001437  85.8822 274.2610 15.80889246  2472
STARLINK-37073          
1 68151U 26049K   26088.09265293  .00191792  00000+0  97751-3 0  9992
2 68151  97.2844 108.3095 0001309  80.1829 279.9587 15.80875690  2473
STARLINK-37049          
1 68152U 26049L   26088.09190244  .00172656  00000+0  88234-3 0  9990
2 68152  97.2844 108.3106 0001492 100.8499 259.2937 15.80866979  2473
STARLINK-37072          
1 68153U 26049M   26088.09115012  .00031671  00000+0  16545-3 0  9998
2 68153  97.2847 108.3113 0001246 105.4715 254.6690 15.80821346  2478
STARLINK-36241          
1 68154U 26049N   26088.16668981  .00011997  00000+0  81241-4 0  9990
2 68154  97.2845 108.3755 0001109  91.9498 299.3720 15.75174677  3769
STARLINK-37048          
1 68155U 26049P   26088.15144232  .00232108  00000+0  11759-2 0  9992
2 68155  97.2844 108.3818 0001185 100.9518 259.1884 15.80902385  2481
STARLINK-36313          
1 68156U 26049Q   26088.08889434  .00186923  00000+0  95288-3 0  9998
2 68156  97.2846 108.3136 0001336  78.9492 281.1926 15.80884193  2477
STARLINK-37064          
1 68157U 26049R   26088.09039611  .00281059  00000+0  14148-2 0  9995
2 68157  97.2840 108.3115 0001205 112.7792 247.3604 15.80916239  2478
STARLINK-37069          
1 68158U 26049S   26088.16668981 -.00027445  00000+0 -18382-3 0  9996
2 68158  97.2848 108.3839 0000929 106.5062 304.8305 15.75178717  3757
STARLINK-37053          
1 68159U 26049T   26088.14918563  .00203913  00000+0  10365-2 0  9995
2 68159  97.2844 108.3845 0001306 101.3639 258.7776 15.80901869  2480
STARLINK-36306          
1 68160U 26049U   26088.16668981 -.00048786  00000+0 -32782-3 0  9990
2 68160  97.2846 108.3931 0000895  92.0246 341.2778 15.75209251  3764
STARLINK-37057          
1 68161U 26049V   26088.15068479  .00229233  00000+0  11592-2 0  9997
2 68161  97.2843 108.3831 0001224 111.2618 248.8781 15.80950710  2488
STARLINK-37013          
1 68162U 26049W   26088.14542264  .00141477  00000+0  72482-3 0  9995
2 68162  97.2841 108.3888 0001261 114.5303 245.6097 15.80894922  2484
STARLINK-36958          
1 68163U 26049X   26088.14693412  .00237284  00000+0  12010-2 0  9990
2 68163  97.2843 108.3873 0001470  92.8301 267.3136 15.80909480  2480
STARLINK-37002          
1 68164U 26049Y   26088.14768578  .00281587  00000+0  14182-2 0  9994
2 68164  97.2840 108.3867 0001649 116.9829 243.1608 15.80903879  2484
STARLINK-36971          
1 68165U 26049Z   26088.14618538  .00120724  00000+0  61999-3 0  9999
2 68165  97.2839 108.3886 0001360 105.4657 254.6761 15.80897971  2488
STARLINK-36273          
1 68166U 26049AA  26088.16668981 -.00004264  00000+0 -27744-4 0  9992
2 68166  97.2844 108.3953 0000968 104.0027 333.3185 15.75179979  3761
STARLINK-36969          
1 68167U 26050A   26088.22374060  .00430999  00000+0  20644-2 0  9990
2 68167  53.1591 183.9449 0000906  38.9998 321.1090 15.81036811  3567
STARLINK-36984          
1 68168U 26050B   26088.15977446  .00351106  00000+0  17027-2 0  9993
2 68168  53.1593 184.2567 0001058  45.5362 314.5748 15.80979411  3559
STARLINK-37077          
1 68169U 26050C   26088.15902384  .00385443  00000+0  18620-2 0  9994
2 68169  53.1593 184.2515 0001020  74.2646 285.8489 15.80972149  3559
STARLINK-37003          
1 68170U 26050D   26088.15827469  .00345067  00000+0  16761-2 0  9998
2 68170  53.1594 184.2464 0000925  87.4928 272.6200 15.80960801  3554
STARLINK-37034          
1 68171U 26050E   26088.15752348  .00316085  00000+0  15416-2 0  9996
2 68171  53.1595 184.2413 0000793  86.2322 273.8791 15.80949395  3551
STARLINK-37031          
1 68172U 26050F   26088.15677416  .00334217  00000+0  16240-2 0  9992
2 68172  53.1590 184.2360 0001238  61.3066 298.8081 15.80981849  3551
STARLINK-37076          
1 68173U 26050G   26088.21924015  .00351178  00000+0  17015-2 0  9996
2 68173  53.1590 183.9145 0000828  80.2280 279.8836 15.80998149  3560
STARLINK-37078          
1 68174U 26050H   26088.15527167  .00389635  00000+0  18834-2 0  9996
2 68174  53.1591 184.2252 0001111  38.7674 321.3429 15.80947986  3559
STARLINK-36886          
1 68175U 26050J   26088.15452066  .00275706  00000+0  13514-2 0  9995
2 68175  53.1591 184.2209 0001374  34.2748 325.8363 15.80952053  3553
STARLINK-36905          
1 68176U 26050K   26088.21698642  .00350530  00000+0  16995-2 0  9990
2 68176  53.1590 183.8993 0000884  47.7951 312.3147 15.80986194  3563
STARLINK-36668          
1 68177U 26050L   26088.15302105  .00287961  00000+0  14091-2 0  9992
2 68177  53.1591 184.2108 0001404  21.7610 338.3472 15.80953671  3553
STARLINK-36677          
1 68178U 26050M   26088.15227090  .00274192  00000+0  13442-2 0  9993
2 68178  53.1592 184.2053 0001419  22.8806 337.2280 15.80951244  3558
STARLINK-37052          
1 68179U 26050N   26088.15152008  .00190440  00000+0  94528-3 0  9998
2 68179  53.1589 184.2007 0001347  25.7054 334.4035 15.80918687  3552
STARLINK-37035          
1 68180U 26050P   26088.15077240  .00292027  00000+0  14294-2 0  9999
2 68180  53.1590 184.1958 0001789  12.8896 347.2172 15.80937627  3550
STARLINK-37032          
1 68181U 26050Q   26088.15002310  .00234979  00000+0  11607-2 0  9993
2 68181  53.1591 184.1908 0001234  24.6489 335.4593 15.80895447  3550
STARLINK-37082          
1 68182U 26050R   26088.14927281  .00383482  00000+0  18568-2 0  9993
2 68182  53.1590 184.1853 0001515  31.8949 328.2166 15.80927695  3559
STARLINK-37102          
1 68183U 26050S   26088.14851780  .00318965  00000+0  15577-2 0  9995
2 68183  53.1588 184.1804 0001074  54.5793 305.5330 15.80912936  3555
STARLINK-36964          
1 68184U 26050T   26088.14777199  .00302021  00000+0  14760-2 0  9996
2 68184  53.1587 184.1754 0001191  19.8848 340.2220 15.80943886  3556
STARLINK-37061          
1 68185U 26050U   26088.14701967  .00204564  00000+0  10134-2 0  9991
2 68185  53.1592 184.1709 0001330  24.3363 335.7723 15.80919407  3550
STARLINK-37079          
1 68186U 26050V   26087.76694861  .00594735  00000+0  27839-2 0  9995
2 68186  53.1590 186.0669 0001158  55.0847 305.0285 15.81107962  3493
STARLINK-37006          
1 68187U 26050W   26088.14552031  .00269698  00000+0  13234-2 0  9992
2 68187  53.1591 184.1608 0001360  21.2727 338.8352 15.80944511  3558
STARLINK-36340          
1 68188U 26050X   26088.14476859  .00224779  00000+0  11099-2 0  9994
2 68188  53.1594 184.1558 0001549  16.0494 344.0578 15.80933420  3453
STARLINK-36305          
1 68189U 26050Y   26088.14403211  .00366033  00000+0  17737-2 0  9992
2 68189  53.1593 184.1509 0000715  33.3888 326.7179 15.80956019  3455
STARLINK-37071          
1 68190U 26050Z   26088.14251976  .00240387  00000+0  11845-2 0  9990
2 68190  53.1594 184.1406 0000670  48.2796 311.8284 15.80934673  3552
STARLINK-37091          
1 68191U 26050AA  26088.14176854  .00265851  00000+0  13049-2 0  9993
2 68191  53.1591 184.1348 0000857  30.1729 329.9343 15.80948179  3550
STARLINK-37098          
1 68192U 26050AB  26088.14101765  .00311784  00000+0  15247-2 0  9992
2 68192  53.1594 184.1300 0000881  57.2615 302.8492 15.80902760  3554
STARLINK-37090          
1 68193U 26050AC  26088.13952058  .00705845  00000+0  32679-2 0  9994
2 68193  53.1594 184.1193 0001338  10.9491 349.1560 15.81057870  3555
